[{"OBJECT_NAME":"SAUDISAT 2","OBJECT_ID":"2004-025F","EPOCH":"2026-03-09T23:26:36.872160","MEAN_MOTION":14.56616688,"ECCENTRICITY":0.00236721,"INCLINATION":98.5497,"RA_OF_ASC_NODE":66.4072,"ARG_OF_PERICENTER":240.2561,"MEAN_ANOMALY":119.6281,"EPHEMERIS_TYPE":0,"CLASSIFICATION_TYPE":"U","NORAD_CAT_ID":28371,"ELEMENT_SET_NO":999,"REV_AT_EPOCH":15130,"BSTAR":0.00011077467,"MEAN_MOTION_DOT":4.46e-6,"MEAN_MOTION_DDOT":0},{"OBJECT_NAME":"CZ-6A DEB","OBJECT_ID":"2024-140MZ","EPOCH":"2026-03-09T13:05:45.590784","MEAN_MOTION":14.43707945,"ECCENTRICITY":0.00954526,"INCLINATION":88.8873,"RA_OF_ASC_NODE":275.7886,"ARG_OF_PERICENTER":301.9722,"MEAN_ANOMALY":57.2229,"EPHEMERIS_TYPE":0,"CLASSIFICATION_TYPE":"U","NORAD_CAT_ID":61083,"ELEMENT_SET_NO":999,"REV_AT_EPOCH":8083,"BSTAR":0.00011941889,"MEAN_MOTION_DOT":4.44e-6,"MEAN_MOTION_DDOT":0}]
